start=new Date('2022-12-30T00:00:00.000Z').valueOf();
sats=[{"INCLINATION":"53.0527","MEAN_MOTION_DOT":"-0.00001962","MEAN_ELEMENT_THEORY":"SGP4","RA_OF_ASC_NODE":"257.2962","TLE_LINE1":"1 47390U 21005AT  22363.40234778 -.00001962  00000-0 -11289-3 0  9996","MEAN_MOTION":"15.06386475","MEAN_ANOMALY":"281.5450","SEMIMAJOR_AXIS":"6925.390","OBJECT_TYPE":"PAYLOAD","EPHEMERIS_TYPE":"0","CENTER_NAME":"EARTH","PERIAPSIS":"546.413","REF_FRAME":"TEME","PERIOD":"95.593","APOAPSIS":"548.097","BSTAR":"-0.00011289000000","OBJECT_ID":"2021-005AT","ELEMENT_SET_NO":"999","RCS_SIZE":"LARGE","DECAY_DATE":null,"OBJECT_NAME":"STARLINK-2111","EPOCH":"2022-12-29T09:39:22.848192","ECCENTRICITY":"0.00012160","CLASSIFICATION_TYPE":"U","ARG_OF_PERICENTER":"78.5675","FILE":"3725790","COUNTRY_CODE":"US","TIME_SYSTEM":"UTC","GP_ID":"221736311","REV_AT_EPOCH":"10725","MEAN_MOTION_DDOT":"0.0000000000000","LAUNCH_DATE":"2021-01-20","SITE":"AFETR","TLE_LINE2":"2 47390  53.0527 257.2962 0001216  78.5675 281.5450 15.06386475107253","NORAD_CAT_ID":"47390"},{"MEAN_MOTION":"15.06395396","MEAN_ANOMALY":"287.0914","SEMIMAJOR_AXIS":"6925.363","OBJECT_TYPE":"PAYLOAD","INCLINATION":"53.0536","MEAN_MOTION_DOT":"-0.00001234","RA_OF_ASC_NODE":"227.2456","MEAN_ELEMENT_THEORY":"SGP4","TLE_LINE1":"1 47391U 21005AU  22363.41153612 -.00001234  00000-0 -63962-4 0  9993","PERIAPSIS":"546.222","REF_FRAME":"TEME","PERIOD":"95.592","EPHEMERIS_TYPE":"0","CENTER_NAME":"EARTH","RCS_SIZE":"LARGE","ELEMENT_SET_NO":"999","DECAY_DATE":null,"OBJECT_NAME":"STARLINK-2112","EPOCH":"2022-12-29T09:52:36.720768","ECCENTRICITY":"0.00014520","APOAPSIS":"548.233","BSTAR":"-0.00006396200000","OBJECT_ID":"2021-005AU","TIME_SYSTEM":"UTC","REV_AT_EPOCH":"10767","GP_ID":"221736561","MEAN_MOTION_DDOT":"0.0000000000000","LAUNCH_DATE":"2021-01-20","SITE":"AFETR","TLE_LINE2":"2 47391  53.0536 227.2456 0001452  73.0234 287.0914 15.06395396107676","NORAD_CAT_ID":"47391","CLASSIFICATION_TYPE":"U","ARG_OF_PERICENTER":"73.0234","FILE":"3725790","COUNTRY_CODE":"US"},{"PERIAPSIS":"546.366","PERIOD":"95.593","REF_FRAME":"TEME","CENTER_NAME":"EARTH","EPHEMERIS_TYPE":"0","SEMIMAJOR_AXIS":"6925.377","OBJECT_TYPE":"PAYLOAD","MEAN_MOTION":"15.06390770","MEAN_ANOMALY":"249.3789","MEAN_ELEMENT_THEORY":"SGP4","RA_OF_ASC_NODE":"227.5474","TLE_LINE1":"1 47392U 21005AV  22363.34613805 -.00001897  00000-0 -10853-3 0  9996","INCLINATION":"53.0523","MEAN_MOTION_DOT":"-0.00001897","LAUNCH_DATE":"2021-01-20","MEAN_MOTION_DDOT":"0.0000000000000","SITE":"AFETR","TLE_LINE2":"2 47392  53.0523 227.5474 0001264 110.7336 249.3789 15.06390770107660","NORAD_CAT_ID":"47392","TIME_SYSTEM":"UTC","REV_AT_EPOCH":"10766","GP_ID":"221737812","FILE":"3725790","COUNTRY_CODE":"US","CLASSIFICATION_TYPE":"U","ARG_OF_PERICENTER":"110.7336","EPOCH":"2022-12-29T08:18:26.327520","ECCENTRICITY":"0.00012640","ELEMENT_SET_NO":"999","RCS_SIZE":"LARGE","DECAY_DATE":null,"OBJECT_NAME":"STARLINK-2113","APOAPSIS":"548.117","BSTAR":"-0.00010853000000","OBJECT_ID":"2021-005AV"},{"MEAN_MOTION_DOT":"-0.00002677","INCLINATION":"53.0527","RA_OF_ASC_NODE":"201.2777","MEAN_ELEMENT_THEORY":"SGP4","TLE_LINE1":"1 47393U 21005AW  22363.70417860 -.00002677  00000-0 -16095-3 0  9991","MEAN_MOTION":"15.06386813","MEAN_ANOMALY":"262.0206","SEMIMAJOR_AXIS":"6925.389","OBJECT_TYPE":"PAYLOAD","EPHEMERIS_TYPE":"0","CENTER_NAME":"EARTH","PERIAPSIS":"546.185","PERIOD":"95.593","REF_FRAME":"TEME","APOAPSIS":"548.323","OBJECT_ID":"2021-005AW","BSTAR":"-0.00016095000000","ELEMENT_SET_NO":"999","RCS_SIZE":"LARGE","OBJECT_NAME":"STARLINK-2114","DECAY_DATE":null,"EPOCH":"2022-12-29T16:54:01.031040","ECCENTRICITY":"0.00015440","CLASSIFICATION_TYPE":"U","ARG_OF_PERICENTER":"98.0959","FILE":"3725904","COUNTRY_CODE":"US","TIME_SYSTEM":"UTC","GP_ID":"221744399","REV_AT_EPOCH":"10806","SITE":"AFETR","TLE_LINE2":"2 47393  53.0527 201.2777 0001544  98.0959 262.0206 15.06386813108064","MEAN_MOTION_DDOT":"0.0000000000000","LAUNCH_DATE":"2021-01-20","NORAD_CAT_ID":"47393"},{"NORAD_CAT_ID":"47394","SITE":"AFETR","TLE_LINE2":"2 47394  53.0520 221.4097 0001503 113.7978 246.3168 15.06384325108392","LAUNCH_DATE":"2021-01-20","MEAN_MOTION_DDOT":"0.0000000000000","REV_AT_EPOCH":"10839","GP_ID":"221744347","TIME_SYSTEM":"UTC","COUNTRY_CODE":"US","FILE":"3725904","ARG_OF_PERICENTER":"113.7978","CLASSIFICATION_TYPE":"U","ECCENTRICITY":"0.00015030","EPOCH":"2022-12-29T15:15:47.414016","OBJECT_NAME":"STARLINK-2115","DECAY_DATE":null,"RCS_SIZE":"LARGE","ELEMENT_SET_NO":"999","OBJECT_ID":"2021-005AX","BSTAR":"-0.00001422300000","APOAPSIS":"548.302","PERIOD":"95.593","REF_FRAME":"TEME","PERIAPSIS":"546.221","CENTER_NAME":"EARTH","EPHEMERIS_TYPE":"0","OBJECT_TYPE":"PAYLOAD","SEMIMAJOR_AXIS":"6925.397","MEAN_ANOMALY":"246.3168","MEAN_MOTION":"15.06384325","TLE_LINE1":"1 47394U 21005AX  22363.63596544 -.00000493  00000-0 -14223-4 0  9997","MEAN_ELEMENT_THEORY":"SGP4","RA_OF_ASC_NODE":"221.4097","MEAN_MOTION_DOT":"-0.00000493","INCLINATION":"53.0520"},{"PERIOD":"95.593","REF_FRAME":"TEME","PERIAPSIS":"546.125","EPHEMERIS_TYPE":"0","CENTER_NAME":"EARTH","MEAN_ANOMALY":"280.2898","MEAN_MOTION":"15.06393535","OBJECT_TYPE":"PAYLOAD","SEMIMAJOR_AXIS":"6925.368","MEAN_MOTION_DOT":"-0.00001321","INCLINATION":"53.0528","TLE_LINE1":"1 47395U 21005AY  22363.32493271 -.00001321  00000-0 -69832-4 0  9994","RA_OF_ASC_NODE":"217.6429","MEAN_ELEMENT_THEORY":"SGP4","REV_AT_EPOCH":"10780","GP_ID":"221737061","TIME_SYSTEM":"UTC","NORAD_CAT_ID":"47395","SITE":"AFETR","TLE_LINE2":"2 47395  53.0528 217.6429 0001600  79.8271 280.2898 15.06393535107808","LAUNCH_DATE":"2021-01-20","MEAN_MOTION_DDOT":"0.0000000000000","ARG_OF_PERICENTER":"79.8271","CLASSIFICATION_TYPE":"U","COUNTRY_CODE":"US","FILE":"3725790","OBJECT_NAME":"STARLINK-2117","DECAY_DATE":null,"RCS_SIZE":"LARGE","ELEMENT_SET_NO":"999","ECCENTRICITY":"0.00016000","EPOCH":"2022-12-29T07:47:54.186144","OBJECT_ID":"2021-005AY","BSTAR":"-0.00006983200000","APOAPSIS":"548.341"},{"MEAN_ANOMALY":"265.1797","MEAN_MOTION":"15.06398637","OBJECT_TYPE":"PAYLOAD","SEMIMAJOR_AXIS":"6925.353","MEAN_MOTION_DOT":"-0.00001807","INCLINATION":"53.0548","TLE_LINE1":"1 47396U 21005AZ  22363.36824520 -.00001807  00000-0 -10245-3 0  9996","MEAN_ELEMENT_THEORY":"SGP4","RA_OF_ASC_NODE":"227.4512","REF_FRAME":"TEME","PERIOD":"95.592","PERIAPSIS":"546.246","EPHEMERIS_TYPE":"0","CENTER_NAME":"EARTH","OBJECT_NAME":"STARLINK-2118","DECAY_DATE":null,"RCS_SIZE":"LARGE","ELEMENT_SET_NO":"999","ECCENTRICITY":"0.00014030","EPOCH":"2022-12-29T08:50:16.385280","OBJECT_ID":"2021-005AZ","BSTAR":"-0.00010245000000","APOAPSIS":"548.189","REV_AT_EPOCH":"10767","GP_ID":"221737313","TIME_SYSTEM":"UTC","NORAD_CAT_ID":"47396","TLE_LINE2":"2 47396  53.0548 227.4512 0001403  94.9352 265.1797 15.06398637107675","SITE":"AFETR","LAUNCH_DATE":"2021-01-20","MEAN_MOTION_DDOT":"0.0000000000000","ARG_OF_PERICENTER":"94.9352","CLASSIFICATION_TYPE":"U","COUNTRY_CODE":"US","FILE":"3725790"},{"EPHEMERIS_TYPE":"0","CENTER_NAME":"EARTH","PERIAPSIS":"546.294","REF_FRAME":"TEME","PERIOD":"95.593","MEAN_MOTION_DOT":"-0.00004453","INCLINATION":"53.0543","RA_OF_ASC_NODE":"257.1509","MEAN_ELEMENT_THEORY":"SGP4","TLE_LINE1":"1 47397U 21005BA  22363.43182751 -.00004453  00000-0 -28035-3 0  9994","MEAN_MOTION":"15.06385111","MEAN_ANOMALY":"272.3959","SEMIMAJOR_AXIS":"6925.394","OBJECT_TYPE":"PAYLOAD","CLASSIFICATION_TYPE":"U","ARG_OF_PERICENTER":"87.7189","FILE":"3725914","COUNTRY_CODE":"US","TIME_SYSTEM":"UTC","REV_AT_EPOCH":"10726","GP_ID":"221744512","SITE":"AFETR","TLE_LINE2":"2 47397  53.0543 257.1509 0001393  87.7189 272.3959 15.06385111107261","MEAN_MOTION_DDOT":"0.0000000000000","LAUNCH_DATE":"2021-01-20","NORAD_CAT_ID":"47397","APOAPSIS":"548.224","OBJECT_ID":"2021-005BA","BSTAR":"-0.00028035000000","RCS_SIZE":"LARGE","ELEMENT_SET_NO":"999","OBJECT_NAME":"STARLINK-2119","DECAY_DATE":null,"EPOCH":"2022-12-29T10:21:49.896864","ECCENTRICITY":"0.00013930"},{"SEMIMAJOR_AXIS":"6925.379","OBJECT_TYPE":"PAYLOAD","MEAN_MOTION":"15.06389941","MEAN_ANOMALY":"286.2424","RA_OF_ASC_NODE":"227.5848","MEAN_ELEMENT_THEORY":"SGP4","TLE_LINE1":"1 47398U 21005BB  22363.33876130 -.00002155  00000-0 -12583-3 0  9993","MEAN_MOTION_DOT":"-0.00002155","INCLINATION":"53.0526","PERIAPSIS":"546.223","REF_FRAME":"TEME","PERIOD":"95.593","CENTER_NAME":"EARTH","EPHEMERIS_TYPE":"0","EPOCH":"2022-12-29T08:07:48.976320","ECCENTRICITY":"0.00014750","RCS_SIZE":"LARGE","ELEMENT_SET_NO":"999","OBJECT_NAME":"STARLINK-2120","DECAY_DATE":null,"APOAPSIS":"548.266","OBJECT_ID":"2021-005BB","BSTAR":"-0.00012583000000","SITE":"AFETR","TLE_LINE2":"2 47398  53.0526 227.5848 0001475  73.8727 286.2424 15.06389941107665","LAUNCH_DATE":"2021-01-20","MEAN_MOTION_DDOT":"0.0000000000000","NORAD_CAT_ID":"47398","TIME_SYSTEM":"UTC","REV_AT_EPOCH":"10766","GP_ID":"221736312","FILE":"3725790","COUNTRY_CODE":"US","CLASSIFICATION_TYPE":"U","ARG_OF_PERICENTER":"73.8727"},{"CENTER_NAME":"EARTH","EPHEMERIS_TYPE":"0","REF_FRAME":"TEME","PERIOD":"95.593","PERIAPSIS":"546.322","TLE_LINE1":"1 47399U 21005BC  22363.37473382 -.00000707  00000-0 -28589-4 0  9995","RA_OF_ASC_NODE":"237.6553","MEAN_ELEMENT_THEORY":"SGP4","INCLINATION":"53.0541","MEAN_MOTION_DOT":"-0.00000707","OBJECT_TYPE":"PAYLOAD","SEMIMAJOR_AXIS":"6925.380","MEAN_ANOMALY":"248.0529","MEAN_MOTION":"15.06389779","COUNTRY_CODE":"US","FILE":"3725790","ARG_OF_PERICENTER":"112.0601","CLASSIFICATION_TYPE":"U","NORAD_CAT_ID":"47399","LAUNCH_DATE":"2021-01-20","MEAN_MOTION_DDOT":"0.0000000000000","TLE_LINE2":"2 47399  53.0541 237.6553 0001332 112.0601 248.0529 15.06389779107523","SITE":"AFETR","GP_ID":"221736562","REV_AT_EPOCH":"10752","TIME_SYSTEM":"UTC","BSTAR":"-0.00002858900000","OBJECT_ID":"2021-005BC","APOAPSIS":"548.167","ECCENTRICITY":"0.00013320","EPOCH":"2022-12-29T08:59:37.002048","DECAY_DATE":null,"OBJECT_NAME":"STARLINK-2121","RCS_SIZE":"LARGE","ELEMENT_SET_NO":"999"}];
